#aV2013  4 23  0  0  0.00000000     288 DD+AD WGS84 FIT  NGA
## 1737 172800.00000000   300.00000000 56405 0.0000000000000
+   30     1  2  3  4  5  6  7  8  9 10 11 12 13 14 15 16 17
+         18 19 20 21 22 23 24 25 26 28 29 31 32  0  0  0  0
+          0  0  0  0  0  0  0  0  0  0  0  0  0  0  0  0  0
+          0  0  0  0  0  0  0  0  0  0  0  0  0  0  0  0  0
+          0  0  0  0  0  0  0  0  0  0  0  0  0  0  0  0  0
++         2  2  2  2  2  2  2  2  2  2  2  2  2  2  2  2  2
++         2  2  2  2  2  2  2  2  2  2  2  2  2  2  2  0  0
++         0  0  0  0  0  0  0  0  0  0  0  0  0  0  0  0  0
++         0  0  0  0  0  0  0  0  0  0  0  0  0  0  0  0  0
++         0  0  0  0  0  0  0  0  0  0  0  0  0  0  0  0  0
%c cc cc ccc ccc cccc cccc cccc cccc ccccc ccccc ccccc ccccc
%c cc cc ccc ccc cccc cccc cccc cccc ccccc ccccc ccccc ccccc
%f  0.0000000  0.000000000  0.00000000000  0.000000000000000
%f  0.0000000  0.000000000  0.00000000000  0.000000000000000
%i    0    0    0    0      0      0      0      0         0
%i    0    0    0    0      0      0      0      0         0
/*      NGA, ST. LOUIS,MO.                                  
/*   EPHEMERIS COMPUTED FROM  1 DAYS OF DATA
/*   EPOCHA SMOOTHER  
/* CCCCCCCCCCCCCCCCCCCCCCCCCCCCCCCCCCCCCCCCCCCCCCCCCCCCCCCCC
*  2013  4 23 18 55  0.00000000                                                 
P  1 -22166.317657 -14026.811777  -4459.289891     19.037600                    
V  1   6248.468191    -23.251059 -31015.464727      0.036754                    
P  2   2725.726246  17444.569769  20179.243046    428.754387                    
V  2 -23292.924464  -9463.040054  10930.856576      0.018732                    
P  3   1186.056972 -19563.144730 -18338.780380    197.888964                    
V  3  17794.916062 -13801.207534  16556.180675      0.048033                    
P  4 -10974.739482  11770.022779  20885.969846    198.768175                    
V  4 -24381.799846 -12105.880304  -5631.890032      0.107781                    
P  5   2142.835281  26395.267611     41.215392   -392.567782                    
V  5  -3303.111194    185.627967  31592.130511     -0.012127                    
P  6   8257.089299 -20212.726175 -14779.607920    261.468641                    
V  6  16743.974778  -9644.818312  22771.225162     -0.158857                    
P  7 -24290.772633  -4512.622919 -10095.674572    206.013336                    
V  7 -10571.478675  -7391.845245  28337.413208      0.043002                    
P  8 -19453.127132   1730.767890 -18174.843173      5.750147                    
V  8 -19205.778504 -12647.228195  18668.077200      0.001216                    
P  9  -3158.821984  14897.980784 -22296.509363    236.105608                    
V  9 -24481.780492 -11260.140705  -4224.172302      0.026079                    
P 10  -9487.838875  19496.562318  14763.831401    -77.567018                    
V 10  -3986.178892 -19257.688539  22841.676611     -0.012006                    
P 11 -18956.193452 -13739.533424 -13224.443259   -375.200209                    
V 11  16577.821495  -1119.175020 -23096.952917     -0.036255                    
P 12  11048.376006  18849.003562  15218.308941    129.996995                    
V 12   -446.600431  19294.007752 -23319.999876      0.020777                    
P 13 -22466.173918   1681.158903  14024.019684    125.806326                    
V 13  14949.702319 -10091.311695  24783.080667     -0.035769                    
P 14  21486.853645 -15185.688189   3192.334895    221.073225                    
V 14   4549.179364    186.156645 -31808.133881     -0.000365                    
P 15  10038.551951  12044.323887 -21474.288228   -116.403404                    
V 15 -22002.348033  16104.429647   -999.830810     -0.014709                    
P 16   -328.012186 -26359.019778    708.389109   -252.438252                    
V 16   2375.543980    854.766366  32490.063535      0.001400                    
P 17 -20859.117485  15931.980780   3335.787673     26.703457                    
V 17  -4898.949273   -269.050286 -31621.270298     -0.039788                    
P 18  15280.416819  -4519.990745 -20816.239471    250.295741                    
V 18   2852.551641  27395.914896  -4133.568013      0.018039                    
P 19  -5562.800687 -14272.563731 -21757.107668   -367.272609                    
V 19  24135.643748 -13086.911568   2838.792033     -0.031239                    
P 20 -14350.748559 -15076.238071  16365.702636     94.459765                    
V 20   -375.832195 -21315.228780 -19683.250643      0.019244                    
P 21  23466.499343   1023.867954 -12327.419621   -293.596271                    
V 21  13607.235018   9601.916846  25010.155183     -0.021636                    
P 22  11471.635739 -16718.687734 -16892.683091    165.367541                    
V 22   4155.184349  21734.503548 -18621.593619      0.013473                    
P 23 -17229.175575  -5209.459887  19720.003190     92.390933                    
V 23  20010.148348 -14683.032639  13259.702126     -0.036292                    
P 24  20107.598805  15490.221312  -7904.745162     -5.038029                    
V 24 -10195.820565  -1830.367981 -29521.542216     -0.007314                    
P 25  14826.271737   7339.487884  20754.844077     90.355736                    
V 25   1534.364318  26364.537374 -10299.675921      0.038798                    
P 26  -4190.362661  17677.540031 -19896.702252    -15.316423                    
V 26 -21399.830208  10797.818735  14908.063207      0.151240                    
P 28 -12399.022543  12777.420845 -19067.312772    252.495951                    
V 28  -1864.790652 -25432.955774 -15540.725302      0.033294                    
P 29  22147.946545  -1884.191313  14557.689971    429.068041                    
V 29 -14574.799295  11410.005720  23784.641118      0.034495                    
P 31   8900.306575 -12089.094332  22097.487478    311.788132                    
V 31  24568.188129  12508.070898  -2802.972944      0.014350                    
P 32  -8188.099945 -22771.427129  11662.372130   -552.144781                    
V 32   2346.798896 -14419.570342 -26307.790180     -0.023069                    
EOF
